[
  {
    "OBJECT_NAME": "STARLINK-30467",
    "OBJECT_ID": "23146E",
    "EPOCH": "2025-11-11T05:19:59.729376",
    "MEAN_MOTION": 15.02545406,
    "ECCENTRICITY": 0.0001252,
    "INCLINATION": 43.0034,
    "RA_OF_ASC_NODE": 237.2409,
    "ARG_OF_PERICENTER": 272.481,
    "MEAN_ANOMALY": 87.5889,
    "EPHEMERIS_TYPE": 0,
    "CLASSIFICATION_TYPE": "U",
    "NORAD_CAT_ID": 57895,
    "ELEMENT_SET_NO": 999,
    "REV_AT_EPOCH": 11924,
    "BSTAR": 0.00019499,
    "MEAN_MOTION_DOT": 2.432e-05,
    "MEAN_MOTION_DDOT": 0.0,
    "TLE_LINE1": "1 57895U 23146E   25315.22221909  .00002432  00000+0  19499-3 0  9998",
    "TLE_LINE2": "2 57895  43.0034 237.2409 0001252 272.4810  87.5889 15.02545406119245",
    "COMMENT": "Grouped by shell and plane from TLE"
  },
  {
    "OBJECT_NAME": "STARLINK-30469",
    "OBJECT_ID": "23146F",
    "EPOCH": "2025-11-11T03:34:41.322432",
    "MEAN_MOTION": 15.02533649,
    "ECCENTRICITY": 9.02e-05,
    "INCLINATION": 43.0045,
    "RA_OF_ASC_NODE": 237.5506,
    "ARG_OF_PERICENTER": 253.6557,
    "MEAN_ANOMALY": 106.4186,
    "EPHEMERIS_TYPE": 0,
    "CLASSIFICATION_TYPE": "U",
    "NORAD_CAT_ID": 57896,
    "ELEMENT_SET_NO": 999,
    "REV_AT_EPOCH": 11923,
    "BSTAR": 0.0,
    "MEAN_MOTION_DOT": -1.876e-05,
    "MEAN_MOTION_DDOT": 0.0,
    "TLE_LINE1": "1 57896U 23146F   25315.14908938 -.00001876  00000+0 -12387-3 0  9996",
    "TLE_LINE2": "2 57896  43.0045 237.5506 0000902 253.6557 106.4186 15.02533649119235",
    "COMMENT": "Grouped by shell and plane from TLE"
  },
  {
    "OBJECT_NAME": "STARLINK-30474",
    "OBJECT_ID": "23146G",
    "EPOCH": "2025-11-11T05:02:25.352160",
    "MEAN_MOTION": 15.02538278,
    "ECCENTRICITY": 0.0001038,
    "INCLINATION": 43.0042,
    "RA_OF_ASC_NODE": 237.1498,
    "ARG_OF_PERICENTER": 263.8137,
    "MEAN_ANOMALY": 96.2587,
    "EPHEMERIS_TYPE": 0,
    "CLASSIFICATION_TYPE": "U",
    "NORAD_CAT_ID": 57897,
    "ELEMENT_SET_NO": 999,
    "REV_AT_EPOCH": 11924,
    "BSTAR": 0.00011118,
    "MEAN_MOTION_DOT": 1.299e-05,
    "MEAN_MOTION_DDOT": 0.0,
    "TLE_LINE1": "1 57897U 23146G   25315.21001565  .00001299  00000+0  11118-3 0  9993",
    "TLE_LINE2": "2 57897  43.0042 237.1498 0001038 263.8137  96.2587 15.02538278119242",
    "COMMENT": "Grouped by shell and plane from TLE"
  },
  {
    "OBJECT_NAME": "STARLINK-30479",
    "OBJECT_ID": "23146H",
    "EPOCH": "2025-11-11T05:00:49.172544",
    "MEAN_MOTION": 15.02546216,
    "ECCENTRICITY": 0.0001968,
    "INCLINATION": 43.0046,
    "RA_OF_ASC_NODE": 237.1393,
    "ARG_OF_PERICENTER": 255.0947,
    "MEAN_ANOMALY": 104.9678,
    "EPHEMERIS_TYPE": 0,
    "CLASSIFICATION_TYPE": "U",
    "NORAD_CAT_ID": 57898,
    "ELEMENT_SET_NO": 999,
    "REV_AT_EPOCH": 11924,
    "BSTAR": 0.0,
    "MEAN_MOTION_DOT": -2.23e-06,
    "MEAN_MOTION_DDOT": 0.0,
    "TLE_LINE1": "1 57898U 23146H   25315.20890246 -.00000223  00000+0 -13924-5 0  9992",
    "TLE_LINE2": "2 57898  43.0046 237.1393 0001968 255.0947 104.9678 15.02546216119244",
    "COMMENT": "Grouped by shell and plane from TLE"
  },
  {
    "OBJECT_NAME": "STARLINK-30481",
    "OBJECT_ID": "23146J",
    "EPOCH": "2025-11-11T04:56:03.384672",
    "MEAN_MOTION": 15.02531771,
    "ECCENTRICITY": 0.0001277,
    "INCLINATION": 43.0026,
    "RA_OF_ASC_NODE": 237.1131,
    "ARG_OF_PERICENTER": 235.4096,
    "MEAN_ANOMALY": 124.6626,
    "EPHEMERIS_TYPE": 0,
    "CLASSIFICATION_TYPE": "U",
    "NORAD_CAT_ID": 57899,
    "ELEMENT_SET_NO": 999,
    "REV_AT_EPOCH": 11924,
    "BSTAR": 0.0,
    "MEAN_MOTION_DOT": -7.73e-06,
    "MEAN_MOTION_DDOT": 0.0,
    "TLE_LINE1": "1 57899U 23146J   25315.20559473 -.00000773  00000+0 -42177-4 0  9998",
    "TLE_LINE2": "2 57899  43.0026 237.1131 0001277 235.4096 124.6626 15.02531771119245",
    "COMMENT": "Grouped by shell and plane from TLE"
  },
  {
    "OBJECT_NAME": "STARLINK-30457",
    "OBJECT_ID": "23146K",
    "EPOCH": "2025-11-11T04:33:38.427840",
    "MEAN_MOTION": 15.02545765,
    "ECCENTRICITY": 0.0001117,
    "INCLINATION": 43.0039,
    "RA_OF_ASC_NODE": 237.0013,
    "ARG_OF_PERICENTER": 276.3528,
    "MEAN_ANOMALY": 83.7187,
    "EPHEMERIS_TYPE": 0,
    "CLASSIFICATION_TYPE": "U",
    "NORAD_CAT_ID": 57900,
    "ELEMENT_SET_NO": 999,
    "REV_AT_EPOCH": 11818,
    "BSTAR": 0.00018375,
    "MEAN_MOTION_DOT": 2.28e-05,
    "MEAN_MOTION_DDOT": 0.0,
    "TLE_LINE1": "1 57900U 23146K   25315.19002810  .00002280  00000+0  18375-3 0  9992",
    "TLE_LINE2": "2 57900  43.0039 237.0013 0001117 276.3528  83.7187 15.02545765118184",
    "COMMENT": "Grouped by shell and plane from TLE"
  },
  {
    "OBJECT_NAME": "STARLINK-30472",
    "OBJECT_ID": "23146L",
    "EPOCH": "2025-11-11T04:08:04.644672",
    "MEAN_MOTION": 15.02538495,
    "ECCENTRICITY": 5.86e-05,
    "INCLINATION": 43.0024,
    "RA_OF_ASC_NODE": 236.8627,
    "ARG_OF_PERICENTER": 280.847,
    "MEAN_ANOMALY": 79.2306,
    "EPHEMERIS_TYPE": 0,
    "CLASSIFICATION_TYPE": "U",
    "NORAD_CAT_ID": 57901,
    "ELEMENT_SET_NO": 999,
    "REV_AT_EPOCH": 11818,
    "BSTAR": 0.00017279,
    "MEAN_MOTION_DOT": 2.132e-05,
    "MEAN_MOTION_DDOT": 0.0,
    "TLE_LINE1": "1 57901U 23146L   25315.17227598  .00002132  00000+0  17279-3 0  9991",
    "TLE_LINE2": "2 57901  43.0024 236.8627 0000586 280.8470  79.2306 15.02538495118187",
    "COMMENT": "Grouped by shell and plane from TLE"
  },
  {
    "OBJECT_NAME": "STARLINK-30462",
    "OBJECT_ID": "23146M",
    "EPOCH": "2025-11-11T04:46:25.940640",
    "MEAN_MOTION": 15.02546862,
    "ECCENTRICITY": 5.4e-05,
    "INCLINATION": 42.9997,
    "RA_OF_ASC_NODE": 237.0652,
    "ARG_OF_PERICENTER": 304.4375,
    "MEAN_ANOMALY": 55.6416,
    "EPHEMERIS_TYPE": 0,
    "CLASSIFICATION_TYPE": "U",
    "NORAD_CAT_ID": 57902,
    "ELEMENT_SET_NO": 999,
    "REV_AT_EPOCH": 11920,
    "BSTAR": 0.0001783,
    "MEAN_MOTION_DOT": 2.207e-05,
    "MEAN_MOTION_DDOT": 0.0,
    "TLE_LINE1": "1 57902U 23146M   25315.19891135  .00002207  00000+0  17830-3 0  9994",
    "TLE_LINE2": "2 57902  42.9997 237.0652 0000540 304.4375  55.6416 15.02546862119204",
    "COMMENT": "Grouped by shell and plane from TLE"
  },
  {
    "OBJECT_NAME": "STARLINK-30449",
    "OBJECT_ID": "23146N",
    "EPOCH": "2025-11-11T04:03:17.101152",
    "MEAN_MOTION": 15.02543683,
    "ECCENTRICITY": 9.72e-05,
    "INCLINATION": 43.0035,
    "RA_OF_ASC_NODE": 236.8363,
    "ARG_OF_PERICENTER": 274.8334,
    "MEAN_ANOMALY": 85.2397,
    "EPHEMERIS_TYPE": 0,
    "CLASSIFICATION_TYPE": "U",
    "NORAD_CAT_ID": 57903,
    "ELEMENT_SET_NO": 999,
    "REV_AT_EPOCH": 11818,
    "BSTAR": 7.5464e-06,
    "MEAN_MOTION_DOT": -1.02e-06,
    "MEAN_MOTION_DDOT": 0.0,
    "TLE_LINE1": "1 57903U 23146N   25315.16894793 -.00000102  00000+0  75464-5 0  9997",
    "TLE_LINE2": "2 57903  43.0035 236.8363 0000972 274.8334  85.2397 15.02543683118181",
    "COMMENT": "Grouped by shell and plane from TLE"
  },
  {
    "OBJECT_NAME": "STARLINK-30466",
    "OBJECT_ID": "23146P",
    "EPOCH": "2025-11-11T03:05:55.948128",
    "MEAN_MOTION": 15.02504383,
    "ECCENTRICITY": 9.22e-05,
    "INCLINATION": 43.0057,
    "RA_OF_ASC_NODE": 237.4022,
    "ARG_OF_PERICENTER": 262.402,
    "MEAN_ANOMALY": 97.6717,
    "EPHEMERIS_TYPE": 0,
    "CLASSIFICATION_TYPE": "U",
    "NORAD_CAT_ID": 57904,
    "ELEMENT_SET_NO": 999,
    "REV_AT_EPOCH": 11817,
    "BSTAR": 0.0005488499999999999,
    "MEAN_MOTION_DOT": 7.212e-05,
    "MEAN_MOTION_DDOT": 0.0,
    "TLE_LINE1": "1 57904U 23146P   25315.12911977  .00007212  00000+0  54885-3 0  9998",
    "TLE_LINE2": "2 57904  43.0057 237.4022 0000922 262.4020  97.6717 15.02504383118171",
    "COMMENT": "Grouped by shell and plane from TLE"
  },
  {
    "OBJECT_NAME": "STARLINK-30451",
    "OBJECT_ID": "23146Q",
    "EPOCH": "2025-11-11T03:58:29.419392",
    "MEAN_MOTION": 15.02541161,
    "ECCENTRICITY": 0.0001056,
    "INCLINATION": 43.0036,
    "RA_OF_ASC_NODE": 236.8093,
    "ARG_OF_PERICENTER": 268.1903,
    "MEAN_ANOMALY": 91.8818,
    "EPHEMERIS_TYPE": 0,
    "CLASSIFICATION_TYPE": "U",
    "NORAD_CAT_ID": 57905,
    "ELEMENT_SET_NO": 999,
    "REV_AT_EPOCH": 11818,
    "BSTAR": 8.662700000000001e-05,
    "MEAN_MOTION_DOT": 9.67e-06,
    "MEAN_MOTION_DDOT": 0.0,
    "TLE_LINE1": "1 57905U 23146Q   25315.16561828  .00000967  00000+0  86627-4 0  9999",
    "TLE_LINE2": "2 57905  43.0036 236.8093 0001056 268.1903  91.8818 15.02541161118186",
    "COMMENT": "Grouped by shell and plane from TLE"
  },
  {
    "OBJECT_NAME": "STARLINK-30428",
    "OBJECT_ID": "23146R",
    "EPOCH": "2025-11-11T04:36:50.715360",
    "MEAN_MOTION": 15.02540364,
    "ECCENTRICITY": 0.000114,
    "INCLINATION": 43.0036,
    "RA_OF_ASC_NODE": 237.0112,
    "ARG_OF_PERICENTER": 259.191,
    "MEAN_ANOMALY": 100.8804,
    "EPHEMERIS_TYPE": 0,
    "CLASSIFICATION_TYPE": "U",
    "NORAD_CAT_ID": 57906,
    "ELEMENT_SET_NO": 999,
    "REV_AT_EPOCH": 11818,
    "BSTAR": 0.00013317,
    "MEAN_MOTION_DOT": 1.596e-05,
    "MEAN_MOTION_DDOT": 0.0,
    "TLE_LINE1": "1 57906U 23146R   25315.19225365  .00001596  00000+0  13317-3 0  9990",
    "TLE_LINE2": "2 57906  43.0036 237.0112 0001140 259.1910 100.8804 15.02540364118184",
    "COMMENT": "Grouped by shell and plane from TLE"
  },
  {
    "OBJECT_NAME": "STARLINK-30482",
    "OBJECT_ID": "23146S",
    "EPOCH": "2025-11-11T04:32:02.325120",
    "MEAN_MOTION": 15.02549594,
    "ECCENTRICITY": 7.85e-05,
    "INCLINATION": 43.004,
    "RA_OF_ASC_NODE": 236.9894,
    "ARG_OF_PERICENTER": 279.5635,
    "MEAN_ANOMALY": 80.5119,
    "EPHEMERIS_TYPE": 0,
    "CLASSIFICATION_TYPE": "U",
    "NORAD_CAT_ID": 57907,
    "ELEMENT_SET_NO": 999,
    "REV_AT_EPOCH": 11819,
    "BSTAR": 0.0002146,
    "MEAN_MOTION_DOT": 2.697e-05,
    "MEAN_MOTION_DDOT": 0.0,
    "TLE_LINE1": "1 57907U 23146S   25315.18891580  .00002697  00000+0  21460-3 0  9999",
    "TLE_LINE2": "2 57907  43.0040 236.9894 0000785 279.5635  80.5119 15.02549594118197",
    "COMMENT": "Grouped by shell and plane from TLE"
  }
]